# From MPEC 2022-ED3
P/2012 G1 (PANSTARRS),e,12.1708,283.2690,266.1120,4.164929,0.1159559,0.32919687,106.4617,04/06.0/2023,2000,g 15.0,4.0
# From MPC 80898
P/2012 K3 (Gibbs),e,13.1874,125.8204,172.2379,3.628911,0.1425737,0.42235594,189.3873,04/06.0/2023,2000,g 15.0,4.0
# From MPC 88326
P/2012 NJ (La Sagra),e,84.5395,315.6073,338.3871,8.466379,0.0400090,0.84669722,157.8985,04/06.0/2023,2000,g 14.5,4.0
# From MPC 81470
P/2012 O1 (McNaught),e,7.4266,91.9207,238.3402,3.541881,0.1478608,0.59416631,221.0596,04/06.0/2023,2000,g 17.5,4.0
# From MPC 80899
P/2012 O2 (McNaught),e,24.4646,120.6818,183.4767,3.626592,0.1427105,0.53185245,204.2782,04/06.0/2023,2000,g 17.0,4.0
# From MPC 82320
P/2012 T2 (PANSTARRS),e,12.5688,73.7171,310.8443,5.726697,0.0719197,0.16242317,260.6570,04/06.0/2023,2000,g 10.0,4.0
# From MPC 80900
P/2012 T3 (PANSTARRS),e,9.5564,114.3598,195.5453,6.151636,0.0645979,0.61652467,257.5558,04/06.0/2023,2000,g 15.0,4.0
# From MPC 82720
P/2012 U2 (PANSTARRS),e,10.7595,185.3247,228.2733,7.130860,0.0517596,0.50016055,196.2675,04/06.0/2023,2000,g 12.5,4.0
# From MPC 84024
P/2012 US27 (Siding Spring),e,39.3701,49.2088,0.8383,5.163995,0.0839896,0.64831852,312.6111,04/06.0/2023,2000,g 13.5,4.0
# From MPC 82721
P/2012 WA34 (Lemmon-PANSTARRS),e,6.0824,93.5538,356.6318,4.679066,0.0973790,0.34361497,350.8652,04/06.0/2023,2000,g 13.5,4.0
# From MPC 82721
P/2013 AL76 (Catalina),e,144.8785,146.0239,27.0405,6.500462,0.0594686,0.68582553,224.7158,04/06.0/2023,2000,g 16.0,4.0
# From MPC 91612
P/2013 G1 (Kowalski),e,5.4574,221.3023,51.5460,6.898767,0.0543935,0.51092507,185.2857,04/06.0/2023,2000,g 11.0,4.0
# From MPC 84025
P/2013 G4 (PANSTARRS),e,5.9160,339.6301,214.6126,4.437596,0.1054344,0.40913605,30.6587,04/06.0/2023,2000,g 15.0,4.0
# From MPC 91613
P/2013 J2 (McNaught),e,15.5069,289.3282,37.8903,6.223524,0.0634818,0.65717537,222.4740,04/06.0/2023,2000,g 13.0,4.0
# From MPC 86229
P/2013 N3 (PANSTARRS),e,2.1733,17.4819,323.9778,7.396412,0.0489973,0.59282683,163.3395,04/06.0/2023,2000,g 13.0,4.0
# From MPC 85834
P/2013 N5 (PANSTARRS),e,23.4607,187.1551,176.9526,6.797058,0.0556189,0.73246846,197.9135,04/06.0/2023,2000,g 17.0,4.0
# From MPC 85834
P/2013 P1 (PANSTARRS),e,18.7209,160.6089,138.2530,8.583966,0.0391897,0.60427153,144.6124,04/06.0/2023,2000,g 12.0,4.0
# From MPEC 2022-V95
P/2013 R3 (Catalina-PANSTARRS),e,0.8650,341.9688,11.3177,3.031655,0.1867173,0.27561317,294.7565,04/06.0/2023,2000,g 14.0,4.0
# From unp
P/2013 R3-A (Catalina-PANSTARRS),e,0.8641,341.9236,11.3966,3.031409,0.1867400,0.27554386,294.8182,04/06.0/2023,2000,g  9.0,4.0
# From MPEC 2015-M77
P/2013 R3-B (Catalina-PANSTARRS),e,0.8654,341.9796,11.3314,3.031629,0.1867196,0.27558916,294.7512,04/06.0/2023,2000,g  9.0,4.0
# From MPC 85835
P/2013 T1 (PANSTARRS),e,24.3020,10.0800,346.1784,5.856372,0.0695442,0.62424947,245.2797,04/06.0/2023,2000,g 16.5,4.0
# From MPC 86643
P/2013 T2 (Schwartz),e,9.4565,0.8025,345.5893,3.492105,0.1510335,0.50096065,184.5671,04/06.0/2023,2000,g 16.0,4.0
# From MPC 91613
P/2013 W1 (PANSTARRS),e,4.6971,117.8385,1.2225,3.487156,0.1513551,0.59300814,141.9288,04/06.0/2023,2000,g 17.5,4.0
# From MPC101095
P/2013 YG46 (Spacewatch),e,7.8576,48.8355,242.6091,3.273944,0.1663785,0.45465351,14.9231,04/06.0/2023,2000,g 10.0,4.0
# From MPC 89728
P/2014 A2 (Hill),e,24.5499,106.6350,356.1458,5.926838,0.0683077,0.64583506,236.6881,04/06.0/2023,2000,g 15.0,4.0
# From MPC 92981
P/2014 A3 (PANSTARRS),e,13.7174,229.9783,214.1612,4.607358,0.0996612,0.24647422,358.3532,04/06.0/2023,2000,g 12.0,4.0
# From MPC102095
P/2014 C1 (TOTAS),e,2.6933,167.8196,23.9802,3.031006,0.1867772,0.45156149,270.7413,04/06.0/2023,2000,g 15.5,4.0
# From MPEC 2022-WD2
C/2014 F3 (Sheppard-Trujillo),e,6.5327,326.2703,4.6485,14.52994,0.0177954,0.60693273,12.0454,04/06.0/2023,2000,g  6.0,4.0
# From MPC 98560
P/2014 L2 (NEOWISE),e,5.1978,149.3451,182.7254,6.305910,0.0622418,0.64772977,197.9315,04/06.0/2023,2000,g 12.0,4.0
# From MPC 90769
P/2014 L3 (Hill),e,6.2649,115.4984,178.7089,8.179252,0.0421341,0.77245529,134.9289,04/06.0/2023,2000,g 16.0,4.0
# From MPC 91614
P/2014 M4 (PANSTARRS),e,3.3445,263.1758,148.0617,5.867622,0.0693443,0.59576416,209.3257,04/06.0/2023,2000,g 15.0,4.0
# From MPEC 2022-K19
P/2014 MG4 (Spacewatch-PANSTARRS),e,9.3659,311.7216,299.0153,5.013738,0.0877934,0.25885684,314.3130,04/06.0/2023,2000,g  9.5,4.0
# From MPC 98560
P/2014 O3 (PANSTARRS),e,7.7945,87.6379,204.7939,7.578359,0.0472434,0.38410825,154.7757,04/06.0/2023,2000,g 10.5,4.0
# From MPEC 2023-A50
C/2014 OG392 (PANSTARRS),e,9.0330,145.8073,254.4722,12.25613,0.0229707,0.18643509,11.0472,04/06.0/2023,2000,g  6.0,4.0
# From MPC 91616
P/2014 U4 (PANSTARRS),e,6.4289,11.8870,347.8520,3.509339,0.1499222,0.46476307,117.1426,04/06.0/2023,2000,g 18.0,4.0
# From MPEC 2023-E68
C/2014 UN271 (Bernardinelli-Bernstein),h,01/21.2232/2031,95.4304,189.8987,326.2135,1.001476,10.948616,2000,2.5,3.2
# From MPC 95211
P/2014 V1 (PANSTARRS),e,22.5226,166.1974,177.6653,5.479476,0.0768414,0.53433834,229.7567,04/06.0/2023,2000,g 14.0,4.0
# From MPC 93586
P/2014 W1 (PANSTARRS),e,8.8358,246.2194,152.1120,4.468850,0.1043303,0.38959022,333.1795,04/06.0/2023,2000,g 15.5,4.0
# From MPC105542
P/2014 W4 (PANSTARRS),e,15.2835,33.3898,67.5849,6.587096,0.0582993,0.35362172,154.6418,04/06.0/2023,2000,g 11.0,4.0
# From MPC 94281
P/2014 X1 (Elenin),e,26.0524,61.5721,33.8632,6.204043,0.0637811,0.70979379,192.3860,04/06.0/2023,2000,g 15.0,4.0
# From MPC 92275
P/2015 A3 (PANSTARRS),e,172.5430,277.3498,249.4940,7.816158,0.0451039,0.85031349,133.9274,04/06.0/2023,2000,g 20.0,4.0
# From MPC 99270
P/2015 B1 (PANSTARRS),e,18.0576,352.9095,188.8504,9.488514,0.0337215,0.36639324,93.2902,04/06.0/2023,2000,g  8.5,4.0
# From MPC109141
P/2015 B4 (Lemmon-PANSTARRS),e,1.7642,266.0746,227.2191,8.514727,0.0396687,0.56080835,118.3796,04/06.0/2023,2000,g 11.0,4.0
# From MPC101096
P/2015 C1 (TOTAS-Gibbs),e,13.9243,348.7897,178.0800,6.572799,0.0584896,0.56134290,169.9468,04/06.0/2023,2000,g 12.5,4.0
# From MPC109141
P/2015 D5 (Kowalski),e,20.5385,74.0758,39.6388,8.951863,0.0367988,0.49021895,121.1079,04/06.0/2023,2000,g  9.0,4.0
# From MPC 96866
P/2015 D6 (Lemmon-PANSTARRS),e,20.2089,45.8339,124.9884,7.134252,0.0517227,0.36149905,146.9618,04/06.0/2023,2000,g 10.5,4.0
# From MPEC 2021-P47
P/2015 HG16 (PANSTARRS),e,18.9041,57.2576,47.3120,4.791589,0.0939690,0.35186266,307.2765,04/06.0/2023,2000,g 12.5,4.0
# From MPC 95213
P/2015 K5 (PANSTARRS),e,39.9417,134.2287,106.2959,6.726796,0.0564926,0.55173455,161.9901,04/06.0/2023,2000,g 13.5,4.0
# From MPC107684
P/2015 M2 (PANSTARRS),e,3.9691,86.5817,226.0333,7.245340,0.0505377,0.17947996,139.5925,04/06.0/2023,2000,g  8.5,4.0
# From MPEC 2021-P47
C/2015 O1 (PANSTARRS),h,02/20.1814/2018,127.1614,299.8185,89.5090,1.001310,3.719211,2000,6.5,4.0
# From MPC 99819
P/2015 P4 (PANSTARRS),e,8.7180,104.6636,280.6994,6.046703,0.0662867,0.58575853,174.2483,04/06.0/2023,2000,g 14.0,4.0
# From MPEC 2022-K19
P/2015 PD229 (Cameron-ISON),e,2.0244,342.6678,352.7169,7.194871,0.0510704,0.32728498,142.4072,04/06.0/2023,2000,g 11.5,2.0
# From MPC 96867
P/2015 Q2 (Pimentel),e,146.5536,228.5443,244.6595,7.353383,0.0494280,0.75077736,136.7637,04/06.0/2023,2000,g 15.5,4.0
# From MPC 98562
P/2015 R1 (PANSTARRS),e,22.7003,48.3188,300.5966,5.880895,0.0691097,0.63415978,195.9751,04/06.0/2023,2000,g 14.0,4.0
# From MPC 95734
P/2015 R2 (PANSTARRS),e,15.4841,168.5945,149.8630,4.484996,0.1037674,0.45267559,295.7118,04/06.0/2023,2000,g 14.5,4.0
# From MPC 96280
P/2015 T3 (PANSTARRS),e,13.0937,120.5019,178.6330,4.326181,0.1095335,0.50818108,359.9227,12/21.0/2014,2000,g 14.0,4.0
# From MPC102953
P/2015 TO19 (Lemmon-PANSTARRS),e,6.5015,321.6211,89.2152,4.551185,0.1015120,0.35947688,262.3353,04/06.0/2023,2000,g 14.0,4.0
# From MPC110080
P/2015 TP200 (LINEAR),e,8.7800,7.0131,82.4397,7.263923,0.0503439,0.53644710,118.2876,04/06.0/2023,2000,g 11.0,4.0
# From MPC101098
P/2015 W2 (Catalina),e,11.6113,294.1234,117.5865,7.290746,0.0500664,0.63539194,137.1803,04/06.0/2023,2000,g 13.0,4.0
# From MPEC 2022-OB6
C/2015 XY1 (Lemmon),e,148.8519,281.5617,196.1391,13878,0.0000006,0.99942880,0.0000,04/25.3183/2018,2000,g  5.5,4.0
# From MPEC 2022-OB6
P/2015 X3 (PANSTARRS),e,24.4073,77.2664,306.7846,5.002593,0.0880869,0.44010696,245.9474,04/06.0/2023,2000,g 15.0,4.0
# From MPC115881
P/2015 X6 (PANSTARRS),e,4.5652,106.9308,329.7900,2.752050,0.2158836,0.17328307,194.4350,04/06.0/2023,2000,g 16.0,4.0
# From MPC100282
P/2016 A2 (Christensen),e,26.4042,291.6183,141.2880,4.753527,0.0950999,0.27099485,271.4530,04/06.0/2023,2000,g 11.5,4.0
# From MPEC 2022-OB6
P/2016 A3 (PANSTARRS),e,8.5115,187.2141,340.8918,7.878050,0.0445734,0.38606584,96.7861,04/06.0/2023,2000,g 10.0,4.0
# From MPC102098
P/2016 A7 (PANSTARRS),e,16.6043,221.4978,352.5049,5.035433,0.0872266,0.56457740,227.1215,04/06.0/2023,2000,g 16.0,4.0
# From MPEC 2023-G14
P/2016 BA14 (PANSTARRS),e,18.8966,180.5136,351.9717,3.026873,0.1871599,0.66430329,123.1735,04/06.0/2023,2000,g 21.0,4.0
# From MPEC 2021-P47
P/2016 G1 (PANSTARRS),e,10.9711,204.0171,111.1505,2.583060,0.2374119,0.21059557,176.9513,04/06.0/2023,2000,g 14.0,4.0
# From MPEC 2017-D91
P/2016 J1-A (PANSTARRS),e,14.3297,199.8069,47.1491,3.173597,0.1743317,0.22771632,71.2647,04/06.0/2023,2000,g 16.5,4.0
# From MPEC 2017-A77
P/2016 J1-B (PANSTARRS),e,14.3324,199.8117,47.0408,3.173234,0.1743616,0.22756659,71.4145,04/06.0/2023,2000,g 17.0,4.0
# From MPEC 2022-ED3
C/2016 M1 (PANSTARRS),e,90.8511,92.2674,209.9324,29179,0.0000002,0.99992412,0.0000,08/10.4388/2018,2000,g  5.0,4.0
# From MPEC 2021-P47
C/2016 N6 (PANSTARRS),e,105.8663,298.8974,162.5770,954.0664,0.0000334,0.99721202,0.0000,07/17.3708/2018,2000,g  7.0,4.0
# From MPC102099
P/2016 P1 (PANSTARRS),e,24.3929,319.4731,270.6189,3.200796,0.1721143,0.28924655,114.1940,04/06.0/2023,2000,g 15.0,4.0
# From MPEC 2023-G31
C/2016 Q2 (PANSTARRS),h,05/12.3916/2021,109.3787,322.3144,84.5574,1.003062,7.081801,2000,6.0,4.0
# From MPEC 2021-N06
